[Satellite]
VERSION=1.1
NAME=FALCON 9 DEB
NICKNAME=FALCON 9 DEB
TLE1=1 45593U 20025BQ  20141.43734731  .05265724  12290-4  37252-3 0  9996
TLE2=2 45593  52.9926 255.8573 0006649 164.1056 196.0200 16.40175989  4455
STATUS=0
